{
 "generated_at": "2026-07-08T07:29:27Z",
 "sources": [
  {
   "name": "CelesTrak",
   "url": "https://celestrak.org/NORAD/elements/",
   "license": "frei verfügbar; Attribution. Ursprünglich USSPACECOM/Space-Track."
  },
  {
   "name": "GCAT (J. McDowell, planet4589.org)",
   "url": "https://planet4589.org/space/gcat/",
   "license": "CC-BY 4.0"
  }
 ],
 "satellites": [
  {
   "norad": 59371,
   "name": "RESURS-P 4",
   "intl": "2024-061A",
   "group": "resource",
   "gcat": {
    "class": "C",
    "category": "IMG",
    "owner": "TSSKBP?",
    "state": "RU"
   },
   "omm": {
    "OBJECT_NAME": "RESURS-P 4",
    "OBJECT_ID": "2024-061A",
    "EPOCH": "2026-07-07T20:02:51.382752",
    "MEAN_MOTION": 15.32251401,
    "ECCENTRICITY": 0.0003203,
    "INCLINATION": 97.2754,
    "RA_OF_ASC_NODE": 136.3763,
    "ARG_OF_PERICENTER": 100.57,
    "MEAN_ANOMALY": 259.5903,
    "EPHEMERIS_TYPE": 0,
    "CLASSIFICATION_TYPE": "U",
    "NORAD_CAT_ID": 59371,
    "ELEMENT_SET_NO": 999,
    "REV_AT_EPOCH": 12692,
    "BSTAR": 0.000075234,
    "MEAN_MOTION_DOT": 0.00002267,
    "MEAN_MOTION_DDOT": 0
   }
  },
  {
   "norad": 44233,
   "name": "RISAT-2B",
   "intl": "2019-028A",
   "group": "sar",
   "gcat": {
    "class": "C",
    "category": "IMG-R",
    "owner": "ISRO",
    "state": "IN"
   },
   "omm": {
    "OBJECT_NAME": "RISAT-2B",
    "OBJECT_ID": "2019-028A",
    "EPOCH": "2026-07-07T18:20:02.859936",
    "MEAN_MOTION": 15.01776395,
    "ECCENTRICITY": 0.0005221,
    "INCLINATION": 36.9961,
    "RA_OF_ASC_NODE": 232.0406,
    "ARG_OF_PERICENTER": 214.6254,
    "MEAN_ANOMALY": 145.4149,
    "EPHEMERIS_TYPE": 0,
    "CLASSIFICATION_TYPE": "U",
    "NORAD_CAT_ID": 44233,
    "ELEMENT_SET_NO": 999,
    "REV_AT_EPOCH": 39092,
    "BSTAR": 0.00016083,
    "MEAN_MOTION_DOT": 0.00002055,
    "MEAN_MOTION_DDOT": 0
   }
  },
  {
   "norad": 44857,
   "name": "RISAT-2BR1",
   "intl": "2019-089F",
   "group": "sar",
   "gcat": {
    "class": "C",
    "category": "IMG-R",
    "owner": "ISRO",
    "state": "IN"
   },
   "omm": {
    "OBJECT_NAME": "RISAT-2BR1",
    "OBJECT_ID": "2019-089F",
    "EPOCH": "2026-07-07T19:58:37.079040",
    "MEAN_MOTION": 15.01781324,
    "ECCENTRICITY": 0.0012712,
    "INCLINATION": 36.9617,
    "RA_OF_ASC_NODE": 349.0983,
    "ARG_OF_PERICENTER": 335.7146,
    "MEAN_ANOMALY": 24.2996,
    "EPHEMERIS_TYPE": 0,
    "CLASSIFICATION_TYPE": "U",
    "NORAD_CAT_ID": 44857,
    "ELEMENT_SET_NO": 999,
    "REV_AT_EPOCH": 36030,
    "BSTAR": 0.00018216,
    "MEAN_MOTION_DOT": 0.00002342,
    "MEAN_MOTION_DDOT": 0
   }
  },
  {
   "norad": 46905,
   "name": "RISAT-2BR2",
   "intl": "2020-081A",
   "group": "sar",
   "gcat": {
    "class": "C",
    "category": "IMG-R",
    "owner": "ISRO",
    "state": "IN"
   },
   "omm": {
    "OBJECT_NAME": "RISAT-2BR2",
    "OBJECT_ID": "2020-081A",
    "EPOCH": "2026-07-07T21:30:58.639392",
    "MEAN_MOTION": 15.01151158,
    "ECCENTRICITY": 0.0014449,
    "INCLINATION": 36.8983,
    "RA_OF_ASC_NODE": 101.3144,
    "ARG_OF_PERICENTER": 322.1236,
    "MEAN_ANOMALY": 37.8488,
    "EPHEMERIS_TYPE": 0,
    "CLASSIFICATION_TYPE": "U",
    "NORAD_CAT_ID": 46905,
    "ELEMENT_SET_NO": 999,
    "REV_AT_EPOCH": 31058,
    "BSTAR": 0.00020307,
    "MEAN_MOTION_DOT": 0.00002579,
    "MEAN_MOTION_DDOT": 0
   }
  },
  {
   "norad": 43641,
   "name": "SAOCOM 1A",
   "intl": "2018-076A",
   "group": "sar",
   "gcat": {
    "class": "C",
    "category": "IMG-R",
    "owner": "CONAE",
    "state": "AR"
   },
   "omm": {
    "OBJECT_NAME": "SAOCOM 1A",
    "OBJECT_ID": "2018-076A",
    "EPOCH": "2026-07-07T20:40:55.700256",
    "MEAN_MOTION": 14.82163616,
    "ECCENTRICITY": 0.0001497,
    "INCLINATION": 97.889,
    "RA_OF_ASC_NODE": 15.3098,
    "ARG_OF_PERICENTER": 80.4356,
    "MEAN_ANOMALY": 279.7026,
    "EPHEMERIS_TYPE": 0,
    "CLASSIFICATION_TYPE": "U",
    "NORAD_CAT_ID": 43641,
    "ELEMENT_SET_NO": 999,
    "REV_AT_EPOCH": 41916,
    "BSTAR": 0.000034061,
    "MEAN_MOTION_DOT": 0.00000219,
    "MEAN_MOTION_DDOT": 0
   }
  },
  {
   "norad": 46265,
   "name": "SAOCOM 1B",
   "intl": "2020-059A",
   "group": "sar",
   "gcat": {
    "class": "C",
    "category": "IMG-R",
    "owner": "CONAE",
    "state": "AR"
   },
   "omm": {
    "OBJECT_NAME": "SAOCOM 1B",
    "OBJECT_ID": "2020-059A",
    "EPOCH": "2026-07-07T19:48:41.990400",
    "MEAN_MOTION": 14.82157633,
    "ECCENTRICITY": 0.0001612,
    "INCLINATION": 97.8896,
    "RA_OF_ASC_NODE": 14.37,
    "ARG_OF_PERICENTER": 80.7943,
    "MEAN_ANOMALY": 279.3453,
    "EPHEMERIS_TYPE": 0,
    "CLASSIFICATION_TYPE": "U",
    "NORAD_CAT_ID": 46265,
    "ELEMENT_SET_NO": 999,
    "REV_AT_EPOCH": 31654,
    "BSTAR": 0.00012513,
    "MEAN_MOTION_DOT": 0.00000944,
    "MEAN_MOTION_DDOT": 0
   }
  },
  {
   "norad": 31797,
   "name": "SAR-LUPE 2",
   "intl": "2007-030A",
   "group": "sar",
   "gcat": {
    "class": "D",
    "category": "IMG-R",
    "owner": "BWB",
    "state": "D"
   },
   "omm": {
    "OBJECT_NAME": "SAR-LUPE 2",
    "OBJECT_ID": "2007-030A",
    "EPOCH": "2026-07-07T20:30:29.833344",
    "MEAN_MOTION": 15.52951494,
    "ECCENTRICITY": 0.0003659,
    "INCLINATION": 98.1051,
    "RA_OF_ASC_NODE": 295.9015,
    "ARG_OF_PERICENTER": 210.3447,
    "MEAN_ANOMALY": 149.7593,
    "EPHEMERIS_TYPE": 0,
    "CLASSIFICATION_TYPE": "U",
    "NORAD_CAT_ID": 31797,
    "ELEMENT_SET_NO": 999,
    "REV_AT_EPOCH": 6014,
    "BSTAR": 0.00011067,
    "MEAN_MOTION_DOT": 0.00006772,
    "MEAN_MOTION_DDOT": 0
   }
  },
  {
   "norad": 39086,
   "name": "SARAL",
   "intl": "2013-009A",
   "group": "resource",
   "gcat": {
    "class": "C",
    "category": "SCI",
    "owner": "ISRO/CNES",
    "state": "IN"
   },
   "omm": {
    "OBJECT_NAME": "SARAL",
    "OBJECT_ID": "2013-009A",
    "EPOCH": "2026-07-07T18:43:52.571712",
    "MEAN_MOTION": 14.32894453,
    "ECCENTRICITY": 0.0001253,
    "INCLINATION": 98.5555,
    "RA_OF_ASC_NODE": 15.0872,
    "ARG_OF_PERICENTER": 187.5932,
    "MEAN_ANOMALY": 172.5233,
    "EPHEMERIS_TYPE": 0,
    "CLASSIFICATION_TYPE": "U",
    "NORAD_CAT_ID": 39086,
    "ELEMENT_SET_NO": 999,
    "REV_AT_EPOCH": 69855,
    "BSTAR": 0.000039936,
    "MEAN_MOTION_DOT": 6.5e-7,
    "MEAN_MOTION_DDOT": 0
   }
  },
  {
   "norad": 43831,
   "name": "SAUDISAT 5A",
   "intl": "2018-102A",
   "group": "resource",
   "gcat": {
    "class": "C",
    "category": "TECH",
    "owner": "KACST",
    "state": "SA"
   },
   "omm": {
    "OBJECT_NAME": "SAUDISAT 5A",
    "OBJECT_ID": "2018-102A",
    "EPOCH": "2026-07-07T20:33:41.497920",
    "MEAN_MOTION": 15.28270411,
    "ECCENTRICITY": 0.0010985,
    "INCLINATION": 97.3056,
    "RA_OF_ASC_NODE": 250.0407,
    "ARG_OF_PERICENTER": 66.5935,
    "MEAN_ANOMALY": 293.6458,
    "EPHEMERIS_TYPE": 0,
    "CLASSIFICATION_TYPE": "U",
    "NORAD_CAT_ID": 43831,
    "ELEMENT_SET_NO": 999,
    "REV_AT_EPOCH": 41883,
    "BSTAR": 0.00014409,
    "MEAN_MOTION_DOT": 0.00003901,
    "MEAN_MOTION_DDOT": 0
   }
  },
  {
   "norad": 43833,
   "name": "SAUDISAT 5B",
   "intl": "2018-102C",
   "group": "resource",
   "gcat": {
    "class": "C",
    "category": "TECH",
    "owner": "KACST",
    "state": "SA"
   },
   "omm": {
    "OBJECT_NAME": "SAUDISAT 5B",
    "OBJECT_ID": "2018-102C",
    "EPOCH": "2026-07-07T20:55:55.837056",
    "MEAN_MOTION": 15.28515971,
    "ECCENTRICITY": 0.0011742,
    "INCLINATION": 97.3164,
    "RA_OF_ASC_NODE": 253.163,
    "ARG_OF_PERICENTER": 68.1354,
    "MEAN_ANOMALY": 292.1134,
    "EPHEMERIS_TYPE": 0,
    "CLASSIFICATION_TYPE": "U",
    "NORAD_CAT_ID": 43833,
    "ELEMENT_SET_NO": 999,
    "REV_AT_EPOCH": 41895,
    "BSTAR": 0.00013102,
    "MEAN_MOTION_DOT": 0.00003568,
    "MEAN_MOTION_DDOT": 0
   }
  }
 ]
}
